*******************************************************************************
JPL/HORIZONS              101955 Bennu (1999 RQ36)         2021-May-13 10:41:14
Rec #:  101955 (+COV) Soln.date: 2018-May-19_06:45:18    # obs: 518 (1999-2018)
 
IAU76/J2000 helio. ecliptic osc. elements (au, days, deg., period=Julian yrs):
 
  EPOCH=  2455562.5 ! 2011-Jan-01.00 (TDB)         Residual RMS= .23238
   EC= .2037451084785423   QR= .8968943641658774   TP= 2455439.1419457849
   OM= 2.060867329373625   W=  66.22306846088361   IN= 6.034939533607825
   A= 1.126391025934071    MA= 101.7039479471865   ADIST= 1.355887687702265
   PER= 1.19548            N= .824461327           ANGMOM= .017873901
   DAN= .99768             DDN= 1.17626            L= 68.16623319999999
   B= 5.5210405            MOID= .0032228          TP= 2010-Aug-30.6419457849
 
Asteroid physical parameters (km, seconds, rotational period in hours):
   GM= 5.2E-9              RAD= .246               ROTPER= 4.297
   H= 20.19                G= -.080                B-V= .640
                           ALBEDO= .046            STYP= B
 
Asteroid non-gravitational force model (AMRAT= m^2/kg;A1,A2,A3=au/d^2;R0=au):
   AMRAT=  3.070000048E-6
   A1= 0.                  A2= -4.614425051841E-14 A3= 0.
 Non-standard or simulated/proxy model:
   ALN=  1.            NK=  0.       NM=  2.25     NN=  0.       R0=  1.
 
ASTEROID comments: 
1: soln ref.= JPL#97, PHA  OCC=0       radar(22 delay, 7 Dop.)
2: source=ORB; Nongravitational accels. using nonstandard g(r) = (1 au/ r)^2.25
*******************************************************************************
 
 
*******************************************************************************
Ephemeris / WWW_USER Thu May 13 10:41:14 2021 Pasadena, USA      / Horizons
*******************************************************************************
Target body name: 101955 Bennu (1999 RQ36)        {source: JPL#97}
Center body name: Solar System Barycenter (0)     {source: DE441}
Center-site name: BODY CENTER
*******************************************************************************
Start time      : A.D. 2020-Aug-03 00:00:00.0000 TDB
Stop  time      : A.D. 2021-May-30 00:00:00.0000 TDB
Step-size       : 1440 minutes
*******************************************************************************
Center geodetic : 0.00000000,0.00000000,0.0000000 {E-lon(deg),Lat(deg),Alt(km)}
Center cylindric: 0.00000000,0.00000000,0.0000000 {E-lon(deg),Dxy(km),Dz(km)}
Center radii    : (undefined)                                                  
Small perturbers: Yes                             {source: SB441-N16}
Output units    : KM-S
Output type     : GEOMETRIC cartesian states
Output format   : 1x (position w/uncertainties: XYZ)
Reference frame : Ecliptic of J2000.0
*******************************************************************************
Initial IAU76/J2000 heliocentric ecliptic osculating elements (au, days, deg.):
  EPOCH=  2455562.5 ! 2011-Jan-01.00 (TDB)         Residual RMS= .23238        
   EC= .2037451084785423   QR= .8968943641658774   TP= 2455439.1419457849      
   OM= 2.060867329373625   W=  66.22306846088361   IN= 6.034939533607825       
  Equivalent ICRF heliocentric cartesian coordinates (au, au/d):
   X=-1.190961322197678E+00  Y=-2.079065368183799E-01  Z=-1.123139104747777E-01
  VX= 8.799332826957187E-05 VY=-1.305063200790120E-02 VZ=-7.375163470663740E-03
Asteroid physical parameters (km, seconds, rotational period in hours):        
   GM= 5.2E-9              RAD= .246               ROTPER= 4.297               
   H= 20.19                G= -.080                B-V= .640                   
                           ALBEDO= .046            STYP= B                     
Asteroid non-gravitational force model (AMRAT= m^2/kg;A1,A2,A3=au/d^2;R0=au):  
   AMRAT=  3.070000048E-6                                                      
   A1= 0.                  A2= -4.614425051841E-14 A3= 0.                      
 Non-standard or simulated/proxy model:                                        
   ALN=  1.            NK=  0.       NM=  2.25     NN=  0.       R0=  1.       
*******************************************************************************
            JDTDB,            Calendar Date (TDB),                      X,                      Y,                      Z,             X_s,             Y_s,             Z_s,
*****************************************************************************************************************************************************************************
$$SOE
2459184.500000000, A.D. 2020-Dec-01 00:00:00.0000, -6.510695810574753E+06, -1.975270493877964E+08, -2.092947459707272E+07,  9.97262213E+00,  5.37122372E+00,  9.30296745E+00,
2459185.500000000, A.D. 2020-Dec-02 00:00:00.0000, -4.504055348813699E+06, -1.973978765263866E+08, -2.092313587124215E+07,  9.91603847E+00,  5.27353331E+00,  9.30459418E+00,
2459186.500000000, A.D. 2020-Dec-03 00:00:00.0000, -2.496971153092838E+06, -1.972439442406528E+08, -2.091418287948608E+07,  9.85819556E+00,  5.17674699E+00,  9.30492146E+00,
2459187.500000000, A.D. 2020-Dec-04 00:00:00.0000, -4.896934270751034E+05, -1.970652046184420E+08, -2.090260963360165E+07,  9.79911265E+00,  5.08088218E+00,  9.30394547E+00,
2459188.500000000, A.D. 2020-Dec-05 00:00:00.0000,  1.517526233539722E+06, -1.968616109499063E+08, -2.088841026727852E+07,  9.73880923E+00,  4.98595612E+00,  9.30166244E+00,
2459189.500000000, A.D. 2020-Dec-06 00:00:00.0000,  3.524434810888292E+06, -1.966331177477448E+08, -2.087157903812639E+07,  9.67730500E+00,  4.89198581E+00,  9.29806872E+00,
2459190.500000000, A.D. 2020-Dec-07 00:00:00.0000,  5.530777834649424E+06, -1.963796807684417E+08, -2.085211032980768E+07,  9.61461990E+00,  4.79898809E+00,  9.29316077E+00,
2459191.500000000, A.D. 2020-Dec-08 00:00:00.0000,  7.536299351588659E+06, -1.961012570345230E+08, -2.082999865427686E+07,  9.55077410E+00,  4.70697958E+00,  9.28693514E+00,
2459192.500000000, A.D. 2020-Dec-09 00:00:00.0000,  9.540741894948607E+06, -1.957978048578503E+08, -2.080523865412918E+07,  9.48578800E+00,  4.61597668E+00,  9.27938846E+00,
2459193.500000000, A.D. 2020-Dec-10 00:00:00.0000,  1.154384645369252E+07, -1.954692838639746E+08, -2.077782510506056E+07,  9.41968219E+00,  4.52599561E+00,  9.27051749E+00,
2459194.500000000, A.D. 2020-Dec-11 00:00:00.0000,  1.354535244160906E+07, -1.951156550175720E+08, -2.074775291844122E+07,  9.35247753E+00,  4.43705237E+00,  9.26031908E+00,
2459195.500000000, A.D. 2020-Dec-12 00:00:00.0000,  1.554499766628687E+07, -1.947368806489820E+08, -2.071501714400560E+07,  9.28419505E+00,  4.34916275E+00,  9.24879021E+00,
2459196.500000000, A.D. 2020-Dec-13 00:00:00.0000,  1.754251829796819E+07, -1.943329244818753E+08, -2.067961297266097E+07,  9.21485604E+00,  4.26234233E+00,  9.23592795E+00,
2459197.500000000, A.D. 2020-Dec-14 00:00:00.0000,  1.953764883829129E+07, -1.939037516620717E+08, -2.064153573941721E+07,  9.14448197E+00,  4.17660647E+00,  9.22172947E+00,
2459198.500000000, A.D. 2020-Dec-15 00:00:00.0000,  2.153012208893229E+07, -1.934493287875352E+08, -2.060078092644031E+07,  9.07309455E+00,  4.09197033E+00,  9.20619208E+00,
2459199.500000000, A.D. 2020-Dec-16 00:00:00.0000,  2.351966912015770E+07, -1.929696239395705E+08, -2.055734416623290E+07,  9.00071568E+00,  4.00844884E+00,  9.18931319E+00,
2459200.500000000, A.D. 2020-Dec-17 00:00:00.0000,  2.550601923929965E+07, -1.924646067152484E+08, -2.051122124494388E+07,  8.92736750E+00,  3.92605671E+00,  9.17109032E+00,
2459201.500000000, A.D. 2020-Dec-18 00:00:00.0000,  2.748889995916669E+07, -1.919342482610848E+08, -2.046240810581034E+07,  8.85307233E+00,  3.84480842E+00,  9.15152114E+00,
2459202.500000000, A.D. 2020-Dec-19 00:00:00.0000,  2.946803696640391E+07, -1.913785213080038E+08, -2.041090085273505E+07,  8.77785271E+00,  3.76471825E+00,  9.13060342E+00,
2459203.500000000, A.D. 2020-Dec-20 00:00:00.0000,  3.144315408981695E+07, -1.907974002076107E+08, -2.035669575400179E+07,  8.70173136E+00,  3.68580021E+00,  9.10833504E+00,
2459204.500000000, A.D. 2020-Dec-21 00:00:00.0000,  3.341397326867548E+07, -1.901908609698055E+08, -2.029978924613255E+07,  8.62473123E+00,  3.60806809E+00,  9.08471405E+00,
2459205.500000000, A.D. 2020-Dec-22 00:00:00.0000,  3.538021452101295E+07, -1.895588813017663E+08, -2.024017793788909E+07,  8.54687544E+00,  3.53153545E+00,  9.05973860E+00,
2459206.500000000, A.D. 2020-Dec-23 00:00:00.0000,  3.734159591193987E+07, -1.889014406483327E+08, -2.017785861442239E+07,  8.46818733E+00,  3.45621556E+00,  9.03340698E+00,
2459207.500000000, A.D. 2020-Dec-24 00:00:00.0000,  3.929783352198996E+07, -1.882185202338211E+08, -2.011282824157368E+07,  8.38869041E+00,  3.38212148E+00,  9.00571763E+00,
2459208.500000000, A.D. 2020-Dec-25 00:00:00.0000,  4.124864141551862E+07, -1.875101031053041E+08, -2.004508397033000E+07,  8.30840838E+00,  3.30926598E+00,  8.97666910E+00,
2459209.500000000, A.D. 2020-Dec-26 00:00:00.0000,  4.319373160917556E+07, -1.867761741773856E+08, -1.997462314143803E+07,  8.22736514E+00,  3.23766155E+00,  8.94626012E+00,
2459210.500000000, A.D. 2020-Dec-27 00:00:00.0000,  4.513281404047343E+07, -1.860167202785068E+08, -1.990144329018015E+07,  8.14558474E+00,  3.16732041E+00,  8.91448955E+00,
2459211.500000000, A.D. 2020-Dec-28 00:00:00.0000,  4.706559653647707E+07, -1.852317301988167E+08, -1.982554215131593E+07,  8.06309144E+00,  3.09825448E+00,  8.88135639E+00,
2459212.500000000, A.D. 2020-Dec-29 00:00:00.0000,  4.899178478263817E+07, -1.844211947396415E+08, -1.974691766419348E+07,  7.97990965E+00,  3.03047535E+00,  8.84685981E+00,
2459213.500000000, A.D. 2020-Dec-30 00:00:00.0000,  5.091108229180255E+07, -1.835851067645907E+08, -1.966556797803376E+07,  7.89606396E+00,  2.96399432E+00,  8.81099913E+00,
